GLOBALSTAR M084         
1 38040U 11080A   24294.79824785 -.00000102  00000+0  10013-4 0  9998
2 38040  52.0018  57.2582 0000530 126.0293  30.0461 12.62268851592431
GLOBALSTAR M080         
1 38041U 11080B   24294.85412343 -.00000113  00000+0 -52769-4 0  9996
2 38041  52.0068  58.6113 0000759 142.6162  27.1299 12.62266988592563
GLOBALSTAR M082         
1 38042U 11080C   24294.70750420 -.00000063  00000+0  22829-3 0  9998
2 38042  52.0103  14.4807 0000779  66.3595  96.9873 12.62267977593256
GLOBALSTAR M092         
1 38043U 11080D   24294.91891944 -.00000096  00000+0  42902-4 0  9990
2 38043  52.0067 104.1995 0000755  93.5609  71.0934 12.62268169591730
GLOBALSTAR M090         
1 38044U 11080E   24294.57022296 -.00000073  00000+0  17201-3 0  9997
2 38044  51.9915   9.0154 0000631  86.3372  53.1409 12.62268897593357
GLOBALSTAR M093         
1 39073U 13005B   24294.96173448 -.00000070  00000+0  18863-3 0  9990
2 39073  51.9805 276.3451 0000754  73.9706 286.1243 12.62265947540557
